ORBCOMM FM24            
1 25478U 98053D   24119.23537420  .00002913  00000+0  10496-2 0  9990
2 25478  45.0077  72.7689 0002800 312.9156  47.1456 14.35599345338040
ORBCOMM FM25            
1 25479U 98053E   24118.92311254  .00003518  00000+0  12581-2 0  9990
2 25479  45.0069  72.4855 0005274 322.9910  37.0573 14.35575530338016
ORBCOMM FM26            
1 25480U 98053F   24119.20325817  .00002784  00000+0  10168-2 0  9997
2 25480  45.0067  65.2299 0007060 343.0300  17.0310 14.35032399338096
ORBCOMM FM27            
1 25481U 98053G   24119.11987965  .00003488  00000+0  12483-2 0  9990
2 25481  45.0054  71.8215 0001378 321.2687  38.8061 14.35562297338017
ORBCOMM FM28            
1 25482U 98053H   24118.97104093  .00003086  00000+0  11001-2 0  9996
2 25482  45.0066  11.0343 0004487  14.8915 345.2064 14.36004594338629
ORBCOMM FM30            
1 25980U 99065A   24119.44479518  .00002033  00000+0  75389-3 0  9994
2 25980  45.0304 249.6082 0005288 103.8801 256.2635 14.35177879275350
ORBCOMM FM31            
1 25981U 99065B   24119.06229068  .00002540  00000+0  92950-3 0  9992
2 25981  45.0220 245.1138 0003163 140.8252 219.2824 14.35177195275295
ORBCOMM FM32            
1 25982U 99065C   24118.68657544  .00002708  00000+0  10080-2 0  9993
2 25982  45.0148 260.5994 0005615 127.5481 232.5876 14.34149928274900
